[{"OBJECT_NAME":"STARLINK-36999","OBJECT_ID":"2026-055G","EPOCH":"2026-03-26T12:00:01.999296","MEAN_MOTION":16.0044042,"ECCENTRICITY":5.7e-5,"INCLINATION":53.1593,"RA_OF_ASC_NODE":253.6405,"ARG_OF_PERICENTER":91.3521,"MEAN_ANOMALY":216.9821,"EPHEMERIS_TYPE":0,"CLASSIFICATION_TYPE":"U","NORAD_CAT_ID":68268,"ELEMENT_SET_NO":999,"REV_AT_EPOCH":233,"BSTAR":-0.0018325,"MEAN_MOTION_DOT":-0.00988496,"MEAN_MOTION_DDOT":0.00032684},{"OBJECT_NAME":"STARLINK-36962","OBJECT_ID":"2026-055H","EPOCH":"2026-03-26T12:00:01.999296","MEAN_MOTION":16.00572586,"ECCENTRICITY":6.12e-5,"INCLINATION":53.1593,"RA_OF_ASC_NODE":253.6357,"ARG_OF_PERICENTER":94.6076,"MEAN_ANOMALY":215.9416,"EPHEMERIS_TYPE":0,"CLASSIFICATION_TYPE":"U","NORAD_CAT_ID":68269,"ELEMENT_SET_NO":999,"REV_AT_EPOCH":233,"BSTAR":-0.0018157,"MEAN_MOTION_DOT":-0.00986933,"MEAN_MOTION_DDOT":0.00032637},{"OBJECT_NAME":"STARLINK-37028","OBJECT_ID":"2026-055J","EPOCH":"2026-03-26T12:00:01.999296","MEAN_MOTION":16.00931766,"ECCENTRICITY":5.33e-5,"INCLINATION":53.1592,"RA_OF_ASC_NODE":253.62,"ARG_OF_PERICENTER":91.2473,"MEAN_ANOMALY":226.704,"EPHEMERIS_TYPE":0,"CLASSIFICATION_TYPE":"U","NORAD_CAT_ID":68270,"ELEMENT_SET_NO":999,"REV_AT_EPOCH":233,"BSTAR":-0.001806,"MEAN_MOTION_DOT":-0.01002123,"MEAN_MOTION_DDOT":0.00033683},{"OBJECT_NAME":"STARLINK-37029","OBJECT_ID":"2026-055K","EPOCH":"2026-03-26T12:00:01.999296","MEAN_MOTION":16.00791235,"ECCENTRICITY":6.21e-5,"INCLINATION":53.1593,"RA_OF_ASC_NODE":253.625,"ARG_OF_PERICENTER":96.519,"MEAN_ANOMALY":219.162,"EPHEMERIS_TYPE":0,"CLASSIFICATION_TYPE":"U","NORAD_CAT_ID":68271,"ELEMENT_SET_NO":999,"REV_AT_EPOCH":233,"BSTAR":-0.001818,"MEAN_MOTION_DOT":-0.01000606,"MEAN_MOTION_DDOT":0.00033539},{"OBJECT_NAME":"STARLINK-36974","OBJECT_ID":"2026-055L","EPOCH":"2026-03-26T12:00:01.999296","MEAN_MOTION":16.01108228,"ECCENTRICITY":5.13e-5,"INCLINATION":53.1592,"RA_OF_ASC_NODE":253.6142,"ARG_OF_PERICENTER":102.828,"MEAN_ANOMALY":217.971,"EPHEMERIS_TYPE":0,"CLASSIFICATION_TYPE":"U","NORAD_CAT_ID":68272,"ELEMENT_SET_NO":999,"REV_AT_EPOCH":233,"BSTAR":-0.0017898,"MEAN_MOTION_DOT":-0.01003316,"MEAN_MOTION_DDOT":0.00033821},{"OBJECT_NAME":"STARLINK-37019","OBJECT_ID":"2026-055M","EPOCH":"2026-03-26T12:00:01.999296","MEAN_MOTION":16.01231279,"ECCENTRICITY":5.75e-5,"INCLINATION":53.1591,"RA_OF_ASC_NODE":253.6097,"ARG_OF_PERICENTER":86.5319,"MEAN_ANOMALY":236.2111,"EPHEMERIS_TYPE":0,"CLASSIFICATION_TYPE":"U","NORAD_CAT_ID":68273,"ELEMENT_SET_NO":999,"REV_AT_EPOCH":233,"BSTAR":-0.0017888,"MEAN_MOTION_DOT":-0.01009876,"MEAN_MOTION_DDOT":0.00034268},{"OBJECT_NAME":"STARLINK-37129","OBJECT_ID":"2026-055N","EPOCH":"2026-03-26T12:00:01.999296","MEAN_MOTION":16.01369975,"ECCENTRICITY":5.66e-5,"INCLINATION":53.159,"RA_OF_ASC_NODE":253.6054,"ARG_OF_PERICENTER":90.6622,"MEAN_ANOMALY":234.3406,"EPHEMERIS_TYPE":0,"CLASSIFICATION_TYPE":"U","NORAD_CAT_ID":68274,"ELEMENT_SET_NO":999,"REV_AT_EPOCH":233,"BSTAR":-0.0017623,"MEAN_MOTION_DOT":-0.01003082,"MEAN_MOTION_DDOT":0.00033904},{"OBJECT_NAME":"STARLINK-37123","OBJECT_ID":"2026-055P","EPOCH":"2026-03-26T12:00:01.999296","MEAN_MOTION":16.01482911,"ECCENTRICITY":5.57e-5,"INCLINATION":53.1592,"RA_OF_ASC_NODE":253.6015,"ARG_OF_PERICENTER":95.789,"MEAN_ANOMALY":231.0732,"EPHEMERIS_TYPE":0,"CLASSIFICATION_TYPE":"U","NORAD_CAT_ID":68275,"ELEMENT_SET_NO":999,"REV_AT_EPOCH":233,"BSTAR":-0.0017461,"MEAN_MOTION_DOT":-0.01000451,"MEAN_MOTION_DDOT":0.00033785},{"OBJECT_NAME":"STARLINK-37125","OBJECT_ID":"2026-055Q","EPOCH":"2026-03-26T12:00:01.999296","MEAN_MOTION":16.01656819,"ECCENTRICITY":5.5e-5,"INCLINATION":53.1591,"RA_OF_ASC_NODE":253.596,"ARG_OF_PERICENTER":86.8902,"MEAN_ANOMALY":242.6855,"EPHEMERIS_TYPE":0,"CLASSIFICATION_TYPE":"U","NORAD_CAT_ID":68276,"ELEMENT_SET_NO":999,"REV_AT_EPOCH":233,"BSTAR":-0.0017348,"MEAN_MOTION_DOT":-0.01004053,"MEAN_MOTION_DDOT":0.00034071},{"OBJECT_NAME":"STARLINK-36989","OBJECT_ID":"2026-055R","EPOCH":"2026-03-26T12:00:01.999296","MEAN_MOTION":16.02093615,"ECCENTRICITY":6.12e-5,"INCLINATION":53.1591,"RA_OF_ASC_NODE":253.5817,"ARG_OF_PERICENTER":106.5483,"MEAN_ANOMALY":229.9137,"EPHEMERIS_TYPE":0,"CLASSIFICATION_TYPE":"U","NORAD_CAT_ID":68277,"ELEMENT_SET_NO":999,"REV_AT_EPOCH":233,"BSTAR":-0.0016862,"MEAN_MOTION_DOT":-0.01001293,"MEAN_MOTION_DDOT":0.00034066},{"OBJECT_NAME":"STARLINK-36982","OBJECT_ID":"2026-055S","EPOCH":"2026-03-26T12:00:01.999296","MEAN_MOTION":16.01958751,"ECCENTRICITY":5.22e-5,"INCLINATION":53.1592,"RA_OF_ASC_NODE":253.5866,"ARG_OF_PERICENTER":100.8782,"MEAN_ANOMALY":233.4579,"EPHEMERIS_TYPE":0,"CLASSIFICATION_TYPE":"U","NORAD_CAT_ID":68278,"ELEMENT_SET_NO":999,"REV_AT_EPOCH":233,"BSTAR":-0.0016974,"MEAN_MOTION_DOT":-0.00999983,"MEAN_MOTION_DDOT":0.00033934},{"OBJECT_NAME":"STARLINK-36934","OBJECT_ID":"2026-055T","EPOCH":"2026-03-26T12:00:01.999296","MEAN_MOTION":16.0182796,"ECCENTRICITY":5.8e-5,"INCLINATION":53.1591,"RA_OF_ASC_NODE":253.591,"ARG_OF_PERICENTER":100.1258,"MEAN_ANOMALY":232.0642,"EPHEMERIS_TYPE":0,"CLASSIFICATION_TYPE":"U","NORAD_CAT_ID":68279,"ELEMENT_SET_NO":999,"REV_AT_EPOCH":233,"BSTAR":-0.0017403,"MEAN_MOTION_DOT":-0.01017249,"MEAN_MOTION_DDOT":0.00034951},{"OBJECT_NAME":"STARLINK-37070","OBJECT_ID":"2026-055U","EPOCH":"2026-03-26T12:00:01.999296","MEAN_MOTION":16.02262903,"ECCENTRICITY":5.41e-5,"INCLINATION":53.1592,"RA_OF_ASC_NODE":253.5763,"ARG_OF_PERICENTER":99.7148,"MEAN_ANOMALY":239.3596,"EPHEMERIS_TYPE":0,"CLASSIFICATION_TYPE":"U","NORAD_CAT_ID":68280,"ELEMENT_SET_NO":999,"REV_AT_EPOCH":233,"BSTAR":-0.0016628,"MEAN_MOTION_DOT":-0.0099735,"MEAN_MOTION_DDOT":0.00033887},{"OBJECT_NAME":"STARLINK-37134","OBJECT_ID":"2026-055V","EPOCH":"2026-03-26T12:00:01.999296","MEAN_MOTION":16.02568838,"ECCENTRICITY":4.71e-5,"INCLINATION":53.1589,"RA_OF_ASC_NODE":253.5669,"ARG_OF_PERICENTER":94.4327,"MEAN_ANOMALY":249.2904,"EPHEMERIS_TYPE":0,"CLASSIFICATION_TYPE":"U","NORAD_CAT_ID":68281,"ELEMENT_SET_NO":999,"REV_AT_EPOCH":233,"BSTAR":-0.0016383,"MEAN_MOTION_DOT":-0.01000511,"MEAN_MOTION_DDOT":0.00034198},{"OBJECT_NAME":"STARLINK-37160","OBJECT_ID":"2026-055W","EPOCH":"2026-03-26T12:00:01.999296","MEAN_MOTION":16.02421507,"ECCENTRICITY":4.76e-5,"INCLINATION":53.1591,"RA_OF_ASC_NODE":253.572,"ARG_OF_PERICENTER":104.0636,"MEAN_ANOMALY":237.4507,"EPHEMERIS_TYPE":0,"CLASSIFICATION_TYPE":"U","NORAD_CAT_ID":68282,"ELEMENT_SET_NO":999,"REV_AT_EPOCH":233,"BSTAR":-0.0016423,"MEAN_MOTION_DOT":-0.00994293,"MEAN_MOTION_DDOT":0.00033759},{"OBJECT_NAME":"STARLINK-37124","OBJECT_ID":"2026-055X","EPOCH":"2026-03-26T12:00:01.999296","MEAN_MOTION":16.02688414,"ECCENTRICITY":5.05e-5,"INCLINATION":53.159,"RA_OF_ASC_NODE":253.5632,"ARG_OF_PERICENTER":98.8551,"MEAN_ANOMALY":246.7893,"EPHEMERIS_TYPE":0,"CLASSIFICATION_TYPE":"U","NORAD_CAT_ID":68283,"ELEMENT_SET_NO":999,"REV_AT_EPOCH":233,"BSTAR":-0.0016148,"MEAN_MOTION_DOT":-0.00993236,"MEAN_MOTION_DDOT":0.00033795}]
