STARLINK-36999          
1 68268U 26055G   26085.50002314 -.00988496  32684-3 -18325-2 0  9997
2 68268  53.1593 253.6405 0000570  91.3521 216.9821 16.00440420  2334
STARLINK-36962          
1 68269U 26055H   26085.50002314 -.00986933  32637-3 -18157-2 0  9993
2 68269  53.1593 253.6357 0000612  94.6076 215.9416 16.00572586  2337
STARLINK-37028          
1 68270U 26055J   26085.50002314 -.01002123  33683-3 -18060-2 0  9991
2 68270  53.1592 253.6200 0000533  91.2473 226.7040 16.00931766  2333
STARLINK-37029          
1 68271U 26055K   26085.50002314 -.01000606  33539-3 -18180-2 0  9999
2 68271  53.1593 253.6250 0000621  96.5190 219.1620 16.00791235  2337
STARLINK-36974          
1 68272U 26055L   26085.50002314 -.01003316  33821-3 -17898-2 0  9990
2 68272  53.1592 253.6142 0000513 102.8280 217.9710 16.01108228  2339
STARLINK-37019          
1 68273U 26055M   26085.50002314 -.01009876  34268-3 -17888-2 0  9993
2 68273  53.1591 253.6097 0000575  86.5319 236.2111 16.01231279  2339
STARLINK-37129          
1 68274U 26055N   26085.50002314 -.01003082  33904-3 -17623-2 0  9990
2 68274  53.1590 253.6054 0000566  90.6622 234.3406 16.01369975  2336
STARLINK-37123          
1 68275U 26055P   26085.50002314 -.01000451  33785-3 -17461-2 0  9995
2 68275  53.1592 253.6015 0000557  95.7890 231.0732 16.01482911  2331
STARLINK-37125          
1 68276U 26055Q   26085.50002314 -.01004053  34071-3 -17348-2 0  9991
2 68276  53.1591 253.5960 0000550  86.8902 242.6855 16.01656819  2331
STARLINK-36989          
1 68277U 26055R   26085.50002314 -.01001293  34066-3 -16862-2 0  9999
2 68277  53.1591 253.5817 0000612 106.5483 229.9137 16.02093615  2337
STARLINK-36982          
1 68278U 26055S   26085.50002314 -.00999983  33934-3 -16974-2 0  9998
2 68278  53.1592 253.5866 0000522 100.8782 233.4579 16.01958751  2332
STARLINK-36934          
1 68279U 26055T   26085.50002314 -.01017249  34951-3 -17403-2 0  9994
2 68279  53.1591 253.5910 0000580 100.1258 232.0642 16.01827960  2330
STARLINK-37070          
1 68280U 26055U   26085.50002314 -.00997350  33887-3 -16628-2 0  9990
2 68280  53.1592 253.5763 0000541  99.7148 239.3596 16.02262903  2336
STARLINK-37134          
1 68281U 26055V   26085.50002314 -.01000511  34198-3 -16383-2 0  9990
2 68281  53.1589 253.5669 0000471  94.4327 249.2904 16.02568838  2330
STARLINK-37160          
1 68282U 26055W   26085.50002314 -.00994293  33759-3 -16423-2 0  9996
2 68282  53.1591 253.5720 0000476 104.0636 237.4507 16.02421507  2337
STARLINK-37124          
1 68283U 26055X   26085.50002314 -.00993236  33795-3 -16148-2 0  9997
2 68283  53.1590 253.5632 0000505  98.8551 246.7893 16.02688414  2331
